{
  "type": "FeatureCollection",
  "features": [
    {
      "type": "Feature",
      "properties": {
        "norad_id": 41434,
        "name": "BEIDOU-2 IGSO-6 (C13)",
        "group": "beidou",
        "lat": -27.457540576229643,
        "lon": -122.52997746507549,
        "alt_km": 35557.91760666282,
        "timestamp": "2025-12-07T05:38:10.169514+00:00",
        "meta_object_name": "BEIDOU-2 IGSO-6 (C13)",
        "meta_object_id": "2016-021A",
        "meta_epoch": "2025-12-01T15:57:35.287200",
        "meta_mean_motion": 1.00256562,
        "meta_eccentricity": 0.00591323,
        "meta_inclination": 59.9483,
        "meta_ra_of_asc_node": 40.0119,
        "meta_arg_of_pericenter": 231.2834,
        "meta_mean_anomaly": 130.8807,
        "meta_ephemeris_type": 0,
        "meta_classification_type": "U",
        "meta_norad_cat_id": 41434,
        "meta_element_set_no": 999,
        "meta_rev_at_epoch": 3550,
        "meta_bstar": 0,
        "meta_mean_motion_dot": -1.55e-06,
        "meta_mean_motion_ddot": 0,
        "tle_line1": "1 41434U 16021A   25335.66499175 -.00000155  00000+0  00000+0 0  9991",
        "tle_line2": "2 41434  59.9483  40.0119 0059132 231.2834 130.8807  1.00256562 35501"
      },
      "geometry": {
        "type": "Point",
        "coordinates": [
          -122.52997746507549,
          -27.457540576229643
        ]
      }
    },
    {
      "type": "Feature",
      "properties": {
        "norad_id": 41586,
        "name": "BEIDOU-2 G7 (C03)",
        "group": "beidou",
        "lat": -0.7190539739260597,
        "lon": -88.75004315708028,
        "alt_km": 35803.95924722733,
        "timestamp": "2025-12-07T05:38:10.169527+00:00",
        "meta_object_name": "BEIDOU-2 G7 (C03)",
        "meta_object_id": "2016-037A",
        "meta_epoch": "2025-12-06T12:28:41.400768",
        "meta_mean_motion": 1.00270086,
        "meta_eccentricity": 0.00043751,
        "meta_inclination": 1.7412,
        "meta_ra_of_asc_node": 67.7316,
        "meta_arg_of_pericenter": 1.5262,
        "meta_mean_anomaly": 303.9569,
        "meta_ephemeris_type": 0,
        "meta_classification_type": "U",
        "meta_norad_cat_id": 41586,
        "meta_element_set_no": 999,
        "meta_rev_at_epoch": 495,
        "meta_bstar": 0,
        "meta_mean_motion_dot": -3.47e-06,
        "meta_mean_motion_ddot": 0,
        "tle_line1": "1 41586U 16037A   25340.51992362 -.00000347  00000+0  00000+0 0  9995",
        "tle_line2": "2 41586   1.7412  67.7316 0004375   1.5262 303.9569  1.00270086  4953"
      },
      "geometry": {
        "type": "Point",
        "coordinates": [
          -88.75004315708028,
          -0.7190539739260597
        ]
      }
    },
    {
      "type": "Feature",
      "properties": {
        "norad_id": 43001,
        "name": "BEIDOU-3 M1 (C19)",
        "group": "beidou",
        "lat": -34.14984656597758,
        "lon": -83.94799012773562,
        "alt_km": 21528.64073916674,
        "timestamp": "2025-12-07T05:38:10.169538+00:00",
        "meta_object_name": "BEIDOU-3 M1 (C19)",
        "meta_object_id": "2017-069A",
        "meta_epoch": "2025-12-06T08:47:12.602112",
        "meta_mean_motion": 1.86230764,
        "meta_eccentricity": 0.00089894,
        "meta_inclination": 56.5217,
        "meta_ra_of_asc_node": 69.4444,
        "meta_arg_of_pericenter": 303.7678,
        "meta_mean_anomaly": 56.1608,
        "meta_ephemeris_type": 0,
        "meta_classification_type": "U",
        "meta_norad_cat_id": 43001,
        "meta_element_set_no": 999,
        "meta_rev_at_epoch": 5501,
        "meta_bstar": 0,
        "meta_mean_motion_dot": -4.5e-07,
        "meta_mean_motion_ddot": 0,
        "tle_line1": "1 43001U 17069A   25340.36611808 -.00000045  00000+0  00000+0 0  9996",
        "tle_line2": "2 43001  56.5217  69.4444 0008989 303.7678  56.1608  1.86230764 55019"
      },
      "geometry": {
        "type": "Point",
        "coordinates": [
          -83.94799012773562,
          -34.14984656597758
        ]
      }
    },
    {
      "type": "Feature",
      "properties": {
        "norad_id": 43002,
        "name": "BEIDOU-3 M2 (C20)",
        "group": "beidou",
        "lat": -56.02330074142506,
        "lon": -31.885608526892717,
        "alt_km": 21527.457326698284,
        "timestamp": "2025-12-07T05:38:10.169549+00:00",
        "meta_object_name": "BEIDOU-3 M2 (C20)",
        "meta_object_id": "2017-069B",
        "meta_epoch": "2025-12-06T07:18:26.076672",
        "meta_mean_motion": 1.8623066,
        "meta_eccentricity": 0.00062871,
        "meta_inclination": 56.5209,
        "meta_ra_of_asc_node": 69.4828,
        "meta_arg_of_pericenter": 331.4917,
        "meta_mean_anomaly": 28.4877,
        "meta_ephemeris_type": 0,
        "meta_classification_type": "U",
        "meta_norad_cat_id": 43002,
        "meta_element_set_no": 999,
        "meta_rev_at_epoch": 5500,
        "meta_bstar": 0,
        "meta_mean_motion_dot": -4.6e-07,
        "meta_mean_motion_ddot": 0,
        "tle_line1": "1 43002U 17069B   25340.30446848 -.00000046  00000+0  00000+0 0  9992",
        "tle_line2": "2 43002  56.5209  69.4828 0006287 331.4917  28.4877  1.86230660 55004"
      },
      "geometry": {
        "type": "Point",
        "coordinates": [
          -31.885608526892717,
          -56.02330074142506
        ]
      }
    },
    {
      "type": "Feature",
      "properties": {
        "norad_id": 43107,
        "name": "BEIDOU-3 M7 (C27)",
        "group": "beidou",
        "lat": 52.196252783926894,
        "lon": 15.824197801852723,
        "alt_km": 21514.407307562728,
        "timestamp": "2025-12-07T05:38:10.169560+00:00",
        "meta_object_name": "BEIDOU-3 M7 (C27)",
        "meta_object_id": "2018-003A",
        "meta_epoch": "2025-12-05T12:15:18.978048",
        "meta_mean_motion": 1.86232243,
        "meta_eccentricity": 0.00026626,
        "meta_inclination": 54.5032,
        "meta_ra_of_asc_node": 309.0664,
        "meta_arg_of_pericenter": 69.7812,
        "meta_mean_anomaly": 290.2304,
        "meta_ephemeris_type": 0,
        "meta_classification_type": "U",
        "meta_norad_cat_id": 43107,
        "meta_element_set_no": 999,
        "meta_rev_at_epoch": 5374,
        "meta_bstar": 0,
        "meta_mean_motion_dot": -7.1e-07,
        "meta_mean_motion_ddot": 0,
        "tle_line1": "1 43107U 18003A   25339.51063632 -.00000071  00000+0  00000+0 0  9992",
        "tle_line2": "2 43107  54.5032 309.0664 0002662  69.7812 290.2304  1.86232243 53743"
      },
      "geometry": {
        "type": "Point",
        "coordinates": [
          15.824197801852723,
          52.196252783926894
        ]
      }
    },
    {
      "type": "Feature",
      "properties": {
        "norad_id": 43108,
        "name": "BEIDOU-3 M8 (C28)",
        "group": "beidou",
        "lat": 48.5660059552425,
        "lon": 75.03900636005389,
        "alt_km": 21534.950471354867,
        "timestamp": "2025-12-07T05:38:10.169571+00:00",
        "meta_object_name": "BEIDOU-3 M8 (C28)",
        "meta_object_id": "2018-003B",
        "meta_epoch": "2025-12-05T23:49:06.243168",
        "meta_mean_motion": 1.86230755,
        "meta_eccentricity": 0.00047661,
        "meta_inclination": 54.4957,
        "meta_ra_of_asc_node": 309.0324,
        "meta_arg_of_pericenter": 274.7089,
        "meta_mean_anomaly": 85.2198,
        "meta_ephemeris_type": 0,
        "meta_classification_type": "U",
        "meta_norad_cat_id": 43108,
        "meta_element_set_no": 999,
        "meta_rev_at_epoch": 5376,
        "meta_bstar": 0,
        "meta_mean_motion_dot": -7.1e-07,
        "meta_mean_motion_ddot": 0,
        "tle_line1": "1 43108U 18003B   25339.99243337 -.00000071  00000+0  00000+0 0  9997",
        "tle_line2": "2 43108  54.4957 309.0324 0004766 274.7089  85.2198  1.86230755 53764"
      },
      "geometry": {
        "type": "Point",
        "coordinates": [
          75.03900636005389,
          48.5660059552425
        ]
      }
    },
    {
      "type": "Feature",
      "properties": {
        "norad_id": 43207,
        "name": "BEIDOU-3 M4 (C22)",
        "group": "beidou",
        "lat": 2.710574930023647,
        "lon": -112.2992749830185,
        "alt_km": 21538.839211513947,
        "timestamp": "2025-12-07T05:38:10.169582+00:00",
        "meta_object_name": "BEIDOU-3 M4 (C22)",
        "meta_object_id": "2018-018A",
        "meta_epoch": "2025-12-02T03:19:43.852800",
        "meta_mean_motion": 1.86230706,
        "meta_eccentricity": 0.00040749,
        "meta_inclination": 56.4768,
        "meta_ra_of_asc_node": 69.6557,
        "meta_arg_of_pericenter": 15.1369,
        "meta_mean_anomaly": 344.8773,
        "meta_ephemeris_type": 0,
        "meta_classification_type": "U",
        "meta_norad_cat_id": 43207,
        "meta_element_set_no": 999,
        "meta_rev_at_epoch": 5307,
        "meta_bstar": 0,
        "meta_mean_motion_dot": -4.5e-07,
        "meta_mean_motion_ddot": 0,
        "tle_line1": "1 43207U 18018A   25336.13870200 -.00000045  00000+0  00000+0 0  9992",
        "tle_line2": "2 43207  56.4768  69.6557 0004074  15.1369 344.8773  1.86230706 53076"
      },
      "geometry": {
        "type": "Point",
        "coordinates": [
          -112.2992749830185,
          2.710574930023647
        ]
      }
    }
  ]
}